[{"OBJECT_NAME":"DONGPO 10","OBJECT_ID":"2022-167H","EPOCH":"2026-03-09T22:44:56.137344","MEAN_MOTION":15.322785,"ECCENTRICITY":0.00061655,"INCLINATION":97.685,"RA_OF_ASC_NODE":235.0962,"ARG_OF_PERICENTER":106.9526,"MEAN_ANOMALY":253.2392,"EPHEMERIS_TYPE":0,"CLASSIFICATION_TYPE":"U","NORAD_CAT_ID":54689,"ELEMENT_SET_NO":999,"REV_AT_EPOCH":18015,"BSTAR":0.00049390523,"MEAN_MOTION_DOT":0.00015333,"MEAN_MOTION_DDOT":0},{"OBJECT_NAME":"STARLINK-35908","OBJECT_ID":"2025-271Y","EPOCH":"2026-03-09T09:58:13.152000","MEAN_MOTION":15.30194279,"ECCENTRICITY":0.00021252,"INCLINATION":53.1576,"RA_OF_ASC_NODE":141.2786,"ARG_OF_PERICENTER":151.2114,"MEAN_ANOMALY":208.9004,"EPHEMERIS_TYPE":0,"CLASSIFICATION_TYPE":"U","NORAD_CAT_ID":66639,"ELEMENT_SET_NO":999,"REV_AT_EPOCH":1752,"BSTAR":0.0011414468,"MEAN_MOTION_DOT":0.00033595,"MEAN_MOTION_DDOT":0}]
